[{"OBJECT_NAME":"TIANMU-1 21","OBJECT_ID":"2023-208C","EPOCH":"2026-03-09T21:48:13.065120","MEAN_MOTION":15.33041299,"ECCENTRICITY":0.00059807,"INCLINATION":97.4378,"RA_OF_ASC_NODE":187.7048,"ARG_OF_PERICENTER":317.2488,"MEAN_ANOMALY":42.8288,"EPHEMERIS_TYPE":0,"CLASSIFICATION_TYPE":"U","NORAD_CAT_ID":58662,"ELEMENT_SET_NO":999,"REV_AT_EPOCH":12234,"BSTAR":0.00040063782,"MEAN_MOTION_DOT":0.00012722,"MEAN_MOTION_DDOT":0},{"OBJECT_NAME":"STARLINK-34421","OBJECT_ID":"2025-130X","EPOCH":"2026-02-26T14:23:06.194400","MEAN_MOTION":15.30192148,"ECCENTRICITY":0.0001089,"INCLINATION":53.1579,"RA_OF_ASC_NODE":140.1444,"ARG_OF_PERICENTER":89.4709,"MEAN_ANOMALY":270.6416,"EPHEMERIS_TYPE":0,"CLASSIFICATION_TYPE":"U","NORAD_CAT_ID":64459,"ELEMENT_SET_NO":999,"REV_AT_EPOCH":3900,"BSTAR":0.00099213,"MEAN_MOTION_DOT":0.00029133,"MEAN_MOTION_DDOT":0}]
